0 DELTA 1 DEB
1 21910U 75052JR  13282.85747373  .00000223  00000-0  90130-3 0  3562
2 21910 099.6545 147.0162 0334206 129.2022 294.4816 12.79086959 31363
0 DELTA 1 DEB
1 21910U 75052JR  13287.55173675  .00000297  00000-0  11636-2 0  3588
2 21910 099.6536 151.0366 0334402 118.8831 310.2429 12.79089343 31967
0 DELTA 1 DEB
1 21910U 75052JR  13289.57813200  .00000342  00000-0  13223-2 0  3593
2 21910 099.6532 152.7720 0334500 114.4288 281.2413 12.79091210 32228
0 DELTA 1 DEB
1 21910U 75052JR  13292.17864374  .00000319  00000-0  12377-2 0  3606
2 21910 099.6530 154.9991 0334618 108.7170 015.8979 12.79093120 32552
0 DELTA 1 DEB
1 21910U 75052JR  13294.58376166  .00000369  00000-0  14156-2 0  3613
2 21910 099.6530 157.0584 0334752 103.4354 290.8375 12.79094575 32863
